#dP2024 12 19 12  0  0.00000000      96 __u+U IGS20 EXT  IAC
## 2345 388800.00000000   900.00000000 60663 0.5000000000000
+   52   G02G03G04G05G06G07G08G09G10G11G12G13G14G15G16G17G18
+        G19G20G21G22G23G24G25G26G27G28G29G30G31G32R01R02R03
+        R04R05R07R08R09R11R12R14R15R16R17R18R19R20R21R22R24
+        R26  0  0  0  0  0  0  0  0  0  0  0  0  0  0  0  0
+          0  0  0  0  0  0  0  0  0  0  0  0  0  0  0  0  0
++         7  7  7  8  7  7  8  7  8  7  7  7  7  8  7  6  7
++         7  7  7  7  8  7  6  6  7  7  7  8  6  8  8  7 10
++         8  9  9  9  8  7  6  7  9  9  7  7  8  9  8  7  8
++         9  0  0  0  0  0  0  0  0  0  0  0  0  0  0  0  0
++         0  0  0  0  0  0  0  0  0  0  0  0  0  0  0  0  0
%c M  cc GPS ccc cccc cccc cccc cccc ccccc ccccc ccccc ccccc
%c cc cc ccc ccc cccc cccc cccc cccc ccccc ccccc ccccc ccccc
%f  0.0000000  0.000000000  0.00000000000  0.000000000000000
%f  0.0000000  0.000000000  0.00000000000  0.000000000000000
%i    0    0    0    0      0      0      0      0         0
%i    0    0    0    0      0      0      0      0         0
/* IAC                                ULTRA-RAPID PREDICTION
/* S/V CLOCKS ARE ALIGNED TO GNSS TIME                      
/* G:C1WC2W R:C1PC2P E:C1XC5X C:C2IC6I J:C1CC2S             
/* PCV:IGS20_2317 OL/AL:FES2004  NONE     YN ORB:CoN CLK:CoN
*  2024 12 20  5 30  0.00000000
PG02   9352.219210  13421.790514 -20535.341629   -287.842358
PG03  12410.274068  23522.725868  -1332.179325    628.550336
PG04   4628.713099  17673.218589  19240.969250    498.728205
PG05  -2227.605984 -21865.042695  14692.422766   -196.544018
PG06  24088.933755  -5985.646552   9695.333753    -57.513779
PG07  23249.337706   7953.718157  11174.243928    -15.053845
PG08  -3494.228069  23697.736800 -11094.609617    442.580500
PG09  11925.898045   9664.821871  21577.639646    494.536610
PG10 -15824.593469    495.181374 -21158.512579   -241.704850
PG11  14015.286112 -12421.003819  18849.899354   -752.715163
PG12  -8599.201514 -24789.164727  -4576.180687   -559.451384
PG13  12869.716911 -22476.402524  -5510.155862    690.602683
PG14  17845.422103   3252.169970 -19431.258722    563.705433
PG15    -67.383635 -24011.186946 -11716.601247    241.700324
PG16  -4577.802134  18974.989686  17445.403325    -98.806418
PG17  18767.068999  -6986.888752 -17136.898579    511.532342
PG18 -24569.811351  -6142.331486   8412.039534   -660.049392
PG19  19351.946758 -14855.276218 -10086.839698    575.977059
PG20   7126.324030 -14603.573716  21117.042907    367.744371
PG21   2631.274613  14847.846207 -21498.811152     97.163769
PG22  14104.993792  -5322.961452 -21469.827887    -87.471344
PG23 -18738.021629 -13250.777656 -13525.769198    387.117123
PG24  -7027.200469 -15073.407510 -21234.642257   -471.974248
PG25 -17312.313403 -18967.173906   6943.390355    497.888535
PG26 -12162.474693  10120.297426  21137.660223    -15.528446
PG27 -12154.467590  23328.639950  -1187.837872    -34.020203
PG28 -24807.082092   5961.091454   7380.468399   -513.113318
PG29 -11135.504760 -10245.697720  21777.969153   -554.432983
PG30  26699.920105   -424.096268   -426.050869   -257.497656
PG31 -18886.150405  10538.499403  15407.612540   -219.627000
PG32 -18390.775811  11211.691496 -15179.713058   -556.142870
PR01  -4877.237083  24857.375960  -3032.227930    108.388206
PR02   2658.430447  21291.757791  13779.636238    -39.025299
PR03   9883.267552   5585.446763  22883.058897    113.576636
PR04  11246.482611 -12409.222748  19277.307770    269.206158
PR05   6916.079280 -23969.101534   5405.558059    142.462706
PR07  -9907.503633  -5324.529971 -22858.550727     97.284097
PR08 -11151.978786  12742.953665 -18999.575950     -6.115071
PR09 -15043.878235 -17876.569270 -10122.306189    227.264399
PR11 -16416.897604  -1362.340101  19474.426569      3.993013
PR12   -563.105295  13108.928831  21889.051811     48.629605
PR14  21092.130978  12581.410568  -6922.704355     27.466988
PR15  15408.551957    -47.895440 -20317.881797     73.023463
PR16    596.200010 -12892.293100 -21993.039816     31.780787
PR17  20811.462114   -428.962617 -14698.862604    150.085975
PR18  23941.805034  -8835.634626    867.073047    177.726870
PR19  16878.157663 -12248.971345  14692.694135   -302.544849
PR20  -4555.786902  -9487.887141  23249.862995   -123.482142
PR21 -20179.106448   -371.296738  15623.499895   -161.041204
PR22 -23834.180059   8832.676989  -2040.561742    -47.679102
PR24   5714.154099   9481.552708 -22955.647434    -84.784817
PR26 -11264.555433  11008.176737 -20049.992712   -132.593325
*  2024 12 20  5 45  0.00000000
PG02   6895.731910  13765.941344 -21218.019662   -287.834331
PG03  12111.871396  23357.512904  -4211.008574    628.558072
PG04   3453.447347  19436.378772  17712.736848    498.733719
PG05  -1058.630902 -20455.102510  16698.862520   -196.545105
PG06  25031.831643  -5850.071783   7004.869287    -57.539352
PG07  21933.404674   8193.016788  13491.371612    -15.052868
PG08  -4238.211679  24584.818962  -8548.643252    442.588362
PG09  10782.438218  11844.996643  21083.281861    494.550938
PG10 -17042.748002  -1571.622439 -20176.638421   -241.718863
PG11  16071.907977 -12258.921858  17237.234445   -752.715266
PG12  -8085.893523 -24329.794661  -7321.632029   -559.453524
PG13  13320.251362 -22696.879296  -2666.942349    690.603918
PG14  18827.703663   5171.445551 -18063.952642    563.712216
PG15    566.556803 -24999.459974  -9256.447656    241.704350
PG16  -5708.980885  17121.977619  18973.611384    -98.797842
PG17  17775.801745  -5108.476347 -18726.164752    511.517765
PG18 -23475.087862  -6338.225508  10985.990833   -660.048854
PG19  18824.445573 -13655.193410 -12555.533406    575.981448
PG20   8789.752029 -12835.582044  21622.599688    367.744078
PG21    105.315563  15120.775013 -21372.574796     97.165756
PG22  15204.516581  -3050.553328 -21138.335879    -87.473500
PG23 -19390.513874 -14504.918697 -11133.725260    387.124031
PG24  -4692.662427 -15416.490479 -21601.732969   -471.971325
PG25 -17460.450783 -19677.572688   4222.674737    497.888115
PG26 -13652.235185   8154.300413  21113.289708    -15.541335
PG27 -12386.848977  23138.085728   1690.981489    -34.019893
PG28 -25510.737196   5761.583870   4635.845672   -513.122809
PG29  -9777.447663 -12315.895726  21343.539838   -554.430162
PG30  26617.041590   -114.520365   2359.197258   -257.490293
PG31 -20558.174344  10368.507712  13303.444509   -219.626348
PG32 -17680.349444   9449.519916 -17093.497863   -556.137261
PR01  -4668.653348  24307.503378  -6181.278930    108.389393
PR02   2582.079573  22825.443685  11055.667505    -39.025121
PR03   9547.828519   8335.955540  22171.021497    113.577083
PR04  10795.638923  -9976.044475  20881.541194    269.207528
PR05   6612.478531 -23149.195024   8484.527194    142.463278
PR07  -9567.322030  -8093.666356 -22186.740669     97.284860
PR08 -10737.275031  10315.221099 -20639.252311     -6.114949
PR09 -13929.289862 -16988.958871 -12875.387451    227.266347
PR11 -18292.270568  -2671.276730  17573.021431      3.991718
PR12  -2725.508871  11418.950118  22661.552764     48.630008
PR14  21690.812479  12887.513364  -3816.293849     27.467076
PR15  17360.482535   1358.558644 -18629.868141     73.023127
PR16   2775.846670 -11195.522537 -22744.980502     31.781252
PR17  18939.950943    184.094348 -17047.986428    150.088933
PR18  23778.969543  -8991.432425  -2365.040833    177.728658
PR19  18376.265990 -12965.060405  12039.927843   -302.546104
PR20  -1850.933825 -10439.800951  23217.736997   -123.482719
PR21 -18205.971506   -998.562339  17858.576306   -161.044089
PR22 -23839.026781   8987.889650   1170.537545    -47.690729
PR24   3081.802535  10551.360913 -22994.446044    -84.786298
PR26 -10859.955964   8473.028274 -21452.877139   -132.593050
EOF
